*******************************************************************************
Ephemeris / WWW_USER Mon Mar 26 21:52:36 2018 Pasadena, USA      / Horizons    
*******************************************************************************
Target body name: Earth-Moon Barycenter (3)       {source: DE431mx}
Center body name: Solar System Barycenter (0)     {source: DE431mx}
Center-site name: BODY CENTER
*******************************************************************************
Start time      : A.D. 2000-Jan-01 00:00:00.0000 TDB
Stop  time      : A.D. 2005-Jan-01 00:00:00.0000 TDB
Step-size       : 7200 minutes
*******************************************************************************
Center geodetic : 0.00000000,0.00000000,0.0000000 {E-lon(deg),Lat(deg),Alt(km)}
Center cylindric: 0.00000000,0.00000000,0.0000000 {E-lon(deg),Dxy(km),Dz(km)}
Center radii    : (undefined)                                                  
Output units    : AU-D                                                         
Output type     : GEOMETRIC cartesian states
Output format   : 2 (position and velocity)
Reference frame : ICRF/J2000.0                                                 
Coordinate systm: Ecliptic and Mean Equinox of Reference Epoch                 
*******************************************************************************
JDTDB
   X     Y     Z
   VX    VY    VZ
*******************************************************************************
$$SOE
2453014.500000000 = A.D. 2004-Jan-10 00:00:00.0000 TDB 
  -3.169418171866144E-01  9.269364109679710E-01 -7.089989969306336E-05
  -1.654169935788301E-02 -5.663860546826135E-03 -9.501924305837036E-08
2453019.500000000 = A.D. 2004-Jan-15 00:00:00.0000 TDB 
  -3.982980561896089E-01  8.950406308768446E-01 -7.133840778254291E-05
  -1.597975958608250E-02 -7.086019073124021E-03 -8.046282703087072E-08
2453024.500000000 = A.D. 2004-Jan-20 00:00:00.0000 TDB 
  -4.765332819159771E-01  8.561700372371543E-01 -7.170537269159826E-05
  -1.529417737824407E-02 -8.451905396750265E-03 -6.641084043590505E-08
2453029.500000000 = A.D. 2004-Jan-25 00:00:00.0000 TDB 
  -5.510434219032720E-01  8.106337226824755E-01 -7.200346935573803E-05
  -1.449078425488964E-02 -9.750525830791170E-03 -5.293557540832109E-08
2453034.500000000 = A.D. 2004-Jan-30 00:00:00.0000 TDB 
  -6.212561339133326E-01  7.587941749976834E-01 -7.223593094161305E-05
  -1.357642798772397E-02 -1.097153364367104E-02 -4.017737484186878E-08
2453039.500000000 = A.D. 2004-Feb-04 00:00:00.0000 TDB 
  -6.866356872431412E-01  7.010637841876853E-01 -7.240655648566369E-05
  -1.255889122343169E-02 -1.210533061390368E-02 -2.820761943398984E-08
2453044.500000000 = A.D. 2004-Feb-09 00:00:00.0000 TDB 
  -7.466874171644647E-01  6.379008744122860E-01 -7.251943832922613E-05
  -1.144680194511351E-02 -1.314315463531862E-02 -1.709967030109573E-08
2453049.500000000 = A.D. 2004-Feb-14 00:00:00.0000 TDB 
  -8.009617057985418E-01  5.698053331074246E-01 -7.257920008250702E-05
  -1.024953338118368E-02 -1.407715401747669E-02 -6.975166715194887E-09
2453054.500000000 = A.D. 2004-Feb-19 00:00:00.0000 TDB 
  -8.490574410219165E-01  4.973138953744318E-01 -7.259089448983875E-05
  -8.977096490603772E-03 -1.490045084074689E-02  2.125106221436045E-09
2453059.500000000 = A.D. 2004-Feb-24 00:00:00.0000 TDB 
  -8.906249330514805E-01  4.209951480219653E-01 -7.255975440531993E-05
  -7.640030856423037E-03 -1.560718884213565E-02  1.014052160769788E-08
2453064.500000000 = A.D. 2004-Feb-29 00:00:00.0000 TDB 
  -9.253682762925691E-01  3.414443350127462E-01 -7.249144421013537E-05
  -6.249291223104502E-03 -1.619256591870146E-02  1.698747791127381E-08
2453069.500000000 = A.D. 2004-Mar-05 00:00:00.0000 TDB 
  -9.530471362263873E-01  2.592780284439740E-01 -7.239182801478408E-05
  -4.816132472374184E-03 -1.665285535752145E-02  2.266283666278581E-08
2453074.500000000 = A.D. 2004-Mar-10 00:00:00.0000 TDB 
  -9.734779720915071E-01  1.751287282968115E-01 -7.226684044742634E-05
  -3.351999048097457E-03 -1.698541254491227E-02  2.712286843024154E-08
2453079.500000000 = A.D. 2004-Mar-15 00:00:00.0000 TDB 
  -9.865347119913334E-01  8.963946503805839E-02 -7.212270420381723E-05
  -1.868415883401564E-03 -1.718866782418021E-02  3.032479739768076E-08
2453084.500000000 = A.D. 2004-Mar-20 00:00:00.0000 TDB 
  -9.921488868988154E-01  3.458462919908662E-03 -7.196562212961466E-05
  -3.768822044168675E-04 -1.726210979845953E-02  3.230469868523124E-08
2453089.500000000 = A.D. 2004-Mar-25 00:00:00.0000 TDB 
  -9.903092560949005E-01 -8.276608811728536E-02 -7.180173275758501E-05
   1.111225411284776E-03 -1.720625798207803E-02  3.304144297874817E-08
2453094.500000000 = A.D. 2004-Mar-30 00:00:00.0000 TDB 
  -9.810609630489018E-01 -1.683910949116749E-01 -7.163725763700646E-05
   2.584744939076915E-03 -1.702262461789190E-02  3.255101912970624E-08
2453099.500000000 = A.D. 2004-Apr-04 00:00:00.0000 TDB 
  -9.645042436192062E-01 -2.527834165223165E-01 -7.147814182895541E-05
   4.032814857973438E-03 -1.671367056680849E-02  3.090524512415269E-08
2453104.500000000 = A.D. 2004-Apr-09 00:00:00.0000 TDB 
  -9.407927320245217E-01 -3.353244847189197E-01 -7.133011781437190E-05
   5.444949026080109E-03 -1.628275504666491E-02  2.811436664256251E-08
2453109.500000000 = A.D. 2004-Apr-14 00:00:00.0000 TDB 
  -9.101314127809687E-01 -4.154146551557086E-01 -7.119881591908772E-05
   6.811104427527149E-03 -1.573407848028948E-02  2.423434684417663E-08
2453114.500000000 = A.D. 2004-Apr-19 00:00:00.0000 TDB 
  -8.727742470839890E-01 -4.924772643822170E-01 -7.108944758379863E-05
   8.121742738122047E-03 -1.507262286579095E-02  1.934648233391980E-08
2453119.500000000 = A.D. 2004-Apr-24 00:00:00.0000 TDB 
  -8.290215196541456E-01 -5.659623862409698E-01 -7.100700014708889E-05
   9.367880469225655E-03 -1.430409054534811E-02  1.347355619228654E-08
2453124.500000000 = A.D. 2004-Apr-29 00:00:00.0000 TDB 
  -7.792169536181830E-01 -6.353502719992031E-01 -7.095618628099272E-05
   1.054113273070164E-02 -1.343483921144643E-02  6.716259213543526E-09
2453129.500000000 = A.D. 2004-May-04 00:00:00.0000 TDB 
  -7.237446188512158E-01 -7.001544650753748E-01 -7.094112687948627E-05
   1.163375128999125E-02 -1.247181753168614E-02 -8.185445155977476E-10
2453134.500000000 = A.D. 2004-May-09 00:00:00.0000 TDB 
  -6.630256733842429E-01 -7.599245992416582E-01 -7.096560453580261E-05
   1.263865318880113E-02 -1.142250247164528E-02 -9.089105503517415E-09
2453139.500000000 = A.D. 2004-May-14 00:00:00.0000 TDB 
  -5.975149787899193E-01 -8.142488804656045E-01 -7.103309054945274E-05
   1.354944362186160E-02 -1.029483520339860E-02 -1.800719139152720E-08
2453144.500000000 = A.D. 2004-May-19 00:00:00.0000 TDB 
  -5.276976083295224E-01 -8.627562509604629E-01 -7.114673310642828E-05
   1.436043534482567E-02 -9.097159234844230E-03 -2.756297555746029E-08
2453149.500000000 = A.D. 2004-May-24 00:00:00.0000 TDB 
  -4.540852767008513E-01 -9.051182554650210E-01 -7.130992817710880E-05
   1.506666050938503E-02 -7.838162367757103E-03 -3.784249625070127E-08
2453154.500000000 = A.D. 2004-May-29 00:00:00.0000 TDB 
  -3.772127221259402E-01 -9.410506163351612E-01 -7.152652213863140E-05
   1.566387881365202E-02 -6.526818166592189E-03 -4.894514258361361E-08
2453159.500000000 = A.D. 2004-Jun-03 00:00:00.0000 TDB 
  -2.976340521625149E-01 -9.703145211733782E-01 -7.180108749163388E-05
   1.614858345562559E-02 -5.172330367233402E-03 -6.107308424049737E-08
2453164.500000000 = A.D. 2004-Jun-08 00:00:00.0000 TDB 
  -2.159190716453811E-01 -9.927176447145502E-01 -7.213929141409752E-05
   1.651800205507881E-02 -3.784081605748139E-03 -7.441430964952933E-08
2453169.500000000 = A.D. 2004-Jun-13 00:00:00.0000 TDB 
  -1.326496154887286E-01 -1.008114913633659E+00 -7.254721048987155E-05
   1.677009470954849E-02 -2.371581215191982E-03 -8.893998152602396E-08
2453174.500000000 = A.D. 2004-Jun-18 00:00:00.0000 TDB 
  -4.841588997077022E-02 -1.016409012340289E+00 -7.303037240524168E-05
   1.690355232220696E-02 -9.444151461768938E-04 -1.044671471675336E-07
2453179.500000000 = A.D. 2004-Jun-23 00:00:00.0000 TDB 
   3.618717115795136E-02 -1.017550651028764E+00 -7.359294518348742E-05
   1.691779198758395E-02  4.877999006929692E-04 -1.206288847990554E-07
2453184.500000000 = A.D. 2004-Jun-28 00:00:00.0000 TDB 
   1.205635222605484E-01 -1.011538603142673E+00 -7.423696839927764E-05
   1.681295088590290E-02  1.915463104592242E-03 -1.369811368787712E-07
2453189.500000000 = A.D. 2004-Jul-03 00:00:00.0000 TDB 
   2.041195919887838E-01 -9.984195124518066E-01 -7.496254500785386E-05
   1.658988053587177E-02  3.329034193048053E-03 -1.532076495827050E-07
2453194.500000000 = A.D. 2004-Jul-08 00:00:00.0000 TDB 
   2.862678369714466E-01 -9.782874872416178E-01 -7.576840074975544E-05
   1.625013899656931E-02  4.719074500712968E-03 -1.690491179654235E-07
2453199.500000000 = A.D. 2004-Jul-13 00:00:00.0000 TDB 
   3.664302493244764E-01 -9.512834854291190E-01 -7.665205083388559E-05
   1.579598081316181E-02  6.076290291767912E-03 -1.843045510581251E-07
2453204.500000000 = A.D. 2004-Jul-18 00:00:00.0000 TDB 
   4.440418166797728E-01 -9.175944811046175E-01 -7.761032043137418E-05
   1.523034815214403E-02  7.391575609045284E-03 -1.988821546575702E-07
2453209.500000000 = A.D. 2004-Jul-23 00:00:00.0000 TDB 
   5.185539350033735E-01 -8.774524244871454E-01 -7.863954358027379E-05
   1.455686010624457E-02  8.656052894571128E-03 -2.126631290694568E-07
2453214.500000000 = A.D. 2004-Jul-28 00:00:00.0000 TDB 
   5.894377607335024E-01 -8.311329926528271E-01 -7.973545544205662E-05
   1.377979956089482E-02  9.861116432775627E-03 -2.255501458905926E-07
2453219.500000000 = A.D. 2004-Aug-02 00:00:00.0000 TDB 
   6.561874976416526E-01 -7.789541192678681E-01 -8.089350752597242E-05
   1.290410048527692E-02  1.099847641842027E-02 -2.375104570231781E-07
